[{"OBJECT_NAME":"HYPERFIELD-1A","OBJECT_ID":"2024-149CY","EPOCH":"2026-03-09T18:21:25.814304","MEAN_MOTION":15.29681349,"ECCENTRICITY":0.00038648,"INCLINATION":97.3842,"RA_OF_ASC_NODE":149.5066,"ARG_OF_PERICENTER":313.7844,"MEAN_ANOMALY":46.3076,"EPHEMERIS_TYPE":0,"CLASSIFICATION_TYPE":"U","NORAD_CAT_ID":60562,"ELEMENT_SET_NO":999,"REV_AT_EPOCH":8683,"BSTAR":0.00030052114,"MEAN_MOTION_DOT":8.569e-5,"MEAN_MOTION_DDOT":0},{"OBJECT_NAME":"STARLINK-36494","OBJECT_ID":"2026-002AC","EPOCH":"2026-03-09T23:37:36.798816","MEAN_MOTION":15.27602644,"ECCENTRICITY":0.00011543,"INCLINATION":42.9993,"RA_OF_ASC_NODE":323.625,"ARG_OF_PERICENTER":263.8982,"MEAN_ANOMALY":96.1738,"EPHEMERIS_TYPE":0,"CLASSIFICATION_TYPE":"U","NORAD_CAT_ID":67331,"ELEMENT_SET_NO":999,"REV_AT_EPOCH":1128,"BSTAR":0.0012146223,"MEAN_MOTION_DOT":0.00033336,"MEAN_MOTION_DDOT":0}]
